STARLINK-2442           
1 48106U 21027Q   24001.77050945  .00000845  00000+0  75631-4 0  9997
2 48106  53.0538 133.6286 0001214  90.6837 269.4291 15.06399071152434
STARLINK-2443           
1 48107U 21027R   24001.65256016 -.00000810  00000+0 -35481-4 0  9995
2 48107  53.0540 134.1464 0001156 101.2497 258.8622 15.06393274152415
STARLINK-2444           
1 48108U 21027S   24001.62584018 -.00000370  00000+0 -59768-5 0  9995
2 48108  53.0546 144.2676 0001231  96.1706 263.9423 15.06392027152262
STARLINK-2445           
1 48109U 21027T   24001.59322017  .00002002  00000+0  21373-4 0  9993
2 48109  53.0520 128.2236 0001069 112.6653 247.4476 15.69721805152492
STARLINK-2447           
1 48110U 21027U   24001.68112556 -.00000329  00000+0 -31725-5 0  9995
2 48110  53.0537 144.0186 0001206  90.4288 269.6839 15.06391483152284
STARLINK-2448           
1 48111U 21027V   24001.60740436 -.00000169  00000+0  75305-5 0  9995
2 48111  53.0544 144.3190 0001317  96.0746 264.0393 15.06397209151875
STARLINK-2449           
1 48112U 21027W   24001.66686508  .00000237  00000+0  34784-4 0  9991
2 48112  53.0542 159.2483 0001245  85.7920 274.3211 15.06390779152063
STARLINK-2450           
1 48113U 21027X   24001.80184276  .00000855  00000+0  76276-4 0  9991
2 48113  53.0543 153.4723 0001264  97.0994 263.0138 15.06393775152147
STARLINK-2451           
1 48114U 21027Y   24001.29056757  .00672120  21860-3  11908-2 0  9997
2 48114  53.0247  69.3798 0010818  29.9305  93.1658 16.01233039152883
STARLINK-2452           
1 48115U 21027Z   24001.79170654  .00001183  00000+0  98331-4 0  9997
2 48115  53.0541 143.5332 0001323  80.9013 279.2125 15.06399660152292
STARLINK-2454           
1 48116U 21027AA  24001.79815649  .00000088  00000+0  24797-4 0  9996
2 48116  53.0543 153.4955 0001252  79.1036 281.0094 15.06391879152157
STARLINK-2455           
1 48117U 21027AB  24001.63686416 -.00003598  00000+0 -22270-3 0  9992
2 48117  53.0546 134.2109 0001357  81.2587 278.8556 15.06409290152413
STARLINK-2458           
1 48118U 21027AC  24001.58252202 -.00004904  00000+0 -31043-3 0  9999
2 48118  53.0536 134.4617 0001197  79.2704 280.8420 15.06411393152004
STARLINK-2459           
1 48119U 21027AD  24001.64424177 -.00000425  00000+0 -96340-5 0  9996
2 48119  53.0544 134.1750 0001341  95.9272 264.1870 15.06395394152405
STARLINK-2460           
1 48120U 21027AE  24001.65073119 -.00002127  00000+0 -12402-3 0  9991
2 48120  53.0542 154.1522 0001457  89.6969 270.4187 15.06382204152143
STARLINK-2462           
1 48121U 21027AF  24001.62215179  .00001336  00000+0  10862-3 0  9990
2 48121  53.0554 144.2799 0001172  82.2428 277.8694 15.06390732152268
STARLINK-2463           
1 48122U 21027AG  24001.75347144  .00005411  00000+0  38181-3 0  9995
2 48122  53.0534 138.6616 0000905  93.3581 266.7512 15.06406422152369
STARLINK-2464           
1 48123U 21027AH  24001.63044135 -.00000132  00000+0  10023-4 0  9999
2 48123  53.0541 134.2465 0001281  83.5260 276.5875 15.06395089152418
STARLINK-2465           
1 48124U 21027AJ  24001.69586982  .00000128  00000+0  27476-4 0  9991
2 48124  53.0544 143.9511 0001239  81.8522 278.2607 15.06392121152276
STARLINK-2466           
1 48125U 21027AK  24001.84242361  .00001254  00000+0  10302-3 0  9999
2 48125  53.0526 153.5340 0000942  80.8460 279.2636 15.06414543152168
STARLINK-2467           
1 48126U 21027AL  24001.59727000 -.00000625  00000+0 -23088-4 0  9999
2 48126  53.0539 134.3939 0001248  92.5136 267.5996 15.06384770152004
STARLINK-2468           
1 48127U 21027AM  24001.65440529  .00000501  00000+0  52523-4 0  9992
2 48127  53.0542 154.1397 0001292  85.6870 274.4266 15.06391795152130
STARLINK-2469           
1 48128U 21027AN  24001.63506774  .00003497  00000+0  25356-3 0  9996
2 48128  53.0535  84.3108 0001544  95.7269 264.3896 15.06402342153107
STARLINK-2471           
1 48129U 21027AP  24001.64703182  .00000169  00000+0  30251-4 0  9994
2 48129  53.0542 154.1720 0001350  89.8528 270.2616 15.06392883152135
STARLINK-2472           
1 48130U 21027AQ  24001.70276157  .00000120  00000+0  26982-4 0  9993
2 48130  53.0529 158.9228 0001293  87.9817 272.1320 15.06394907152078
STARLINK-2473           
1 48131U 21027AR  24001.65624692  .00000089  00000+0  24869-4 0  9995
2 48131  53.0537 134.1298 0001322  85.9882 274.1258 15.06393116152415
STARLINK-2474           
1 48132U 21027AS  24001.70231882 -.00000052  00000+0  15394-4 0  9991
2 48132  53.0538 153.9210 0001213  87.0755 273.0373 15.06391899152132
STARLINK-2475           
1 48133U 21027AT  24001.63228664  .00000519  00000+0  53765-4 0  9999
2 48133  53.0541 154.2334 0001294  85.1866 274.9270 15.06395087152138
STARLINK-2476           
1 48134U 21027AU  24001.81658522  .00000331  00000+0  41115-4 0  9998
2 48134  53.0532 153.4108 0001263  90.4860 269.6274 15.06392282152159
STARLINK-2478           
1 48135U 21027AV  24001.81798949  .00000836  00000+0  75048-4 0  9999
2 48135  53.0546 158.5684 0001322  81.6763 278.4376 15.06396924152080
STARLINK-2479           
1 48136U 21027AW  24001.65096891  .00000374  00000+0  45621-4 0  9990
2 48136  53.0547 154.2346 0000832  66.1507 293.9568 15.04763344152132
STARLINK-2480           
1 48137U 21027AX  24001.66730368  .00000347  00000+0  42173-4 0  9995
2 48137  53.0538 134.0507 0001205  88.8828 271.2299 15.06391468152417
STARLINK-2481           
1 48138U 21027AY  24001.69494935  .00000582  00000+0  57980-4 0  9999
2 48138  53.0547 153.9590 0001326  87.2127 272.9013 15.06393871152141
STARLINK-2482           
1 48139U 21027AZ  24001.75207935  .00000280  00000+0  37715-4 0  9998
2 48139  53.0542 133.6991 0001305  77.9671 282.1465 15.06395689152439
STARLINK-2483           
1 48140U 21027BA  24001.90511429 -.00000596  00000+0 -21129-4 0  9997
2 48140  53.0539 153.5623 0001316  94.1415 265.9725 15.06393603152161
STARLINK-2484           
1 48141U 21027BB  24001.80921523  .00000108  00000+0  26129-4 0  9999
2 48141  53.0543 153.4443 0001348  88.0246 272.0897 15.06392508152178
STARLINK-2485           
1 48142U 21027BC  24001.68204982  .00001348  00000+0  10937-3 0  9995
2 48142  53.0540 134.0147 0001265  81.3411 278.7721 15.06395580152420
STARLINK-2486           
1 48143U 21027BD  24001.47426764  .00000690  00000+0  65197-4 0  9995
2 48143  53.0539  90.0449 0001324 101.2143 258.8995 15.06391441153015
STARLINK-2487           
1 48144U 21027BE  24001.62308374  .00000279  00000+0  37616-4 0  9997
2 48144  53.0553 134.2815 0001264  90.8330 269.2804 15.06389590152403
STARLINK-2488           
1 48145U 21027BF  24001.62676133  .00001546  00000+0  12265-3 0  9999
2 48145  53.0543 134.2642 0001380  80.5947 279.5198 15.06394791152410
STARLINK-2489           
1 48146U 21027BG  24001.82394539 -.00001122  00000+0 -56483-4 0  9992
2 48146  53.0543 153.3839 0001175 105.5861 254.5258 15.06395376152168
STARLINK-2490           
1 48147U 21027BH  24001.75530946  .00000829  00000+0  74524-4 0  9996
2 48147  53.0534 158.6867 0001136  92.5798 267.5321 15.06392302152081
STARLINK-2491           
1 48148U 21027BJ  24001.72443539  .00000183  00000+0  31193-4 0  9993
2 48148  53.0547 153.8263 0001230  85.8259 274.2870 15.06393050152136
STARLINK-2492           
1 48149U 21027BK  24001.73734075  .00000639  00000+0  61792-4 0  9997
2 48149  53.0539 133.7664 0001252  86.8751 273.2381 15.06394029152427
STARLINK-2493           
1 48150U 21027BL  24001.74102332  .00000747  00000+0  69066-4 0  9997
2 48150  53.0539 133.7501 0001230  87.4944 272.6186 15.06393288152439
STARLINK-2503           
1 48151U 21027BM  24001.74470739 -.00000046  00000+0  15797-4 0  9992
2 48151  53.0536 133.7323 0001444 100.8321 259.2830 15.06396423152436
STARLINK-2567           
1 48276U 21036A   24001.45398793  .00000515  00000+0  53497-4 0  9996
2 48276  53.0549  30.0406 0001381  78.6838 281.4306 15.06393893148498
STARLINK-2569           
1 48277U 21036B   24002.18518509  .00000005  00000+0  19258-4 0  9998
2 48277  53.0543 351.7569 0001383  99.0028 261.1117 15.06401007149679
STARLINK-2543           
1 48278U 21036C   24002.15615943  .00001974  00000+0  15138-3 0  9994
2 48278  53.0559   6.9656 0001596  99.8090 260.3080 15.06409173149454
STARLINK-2580           
1 48279U 21036D   24002.14878661  .00002494  00000+0  18625-3 0  9994
2 48279  53.0554   6.9157 0001506  92.9235 267.1927 15.06405084149454
STARLINK-2565           
1 48280U 21036E   24001.47885859  .00000529  00000+0  54427-4 0  9996
2 48280  53.0533  79.9270 0001432  86.5124 273.6028 15.06397776147790
STARLINK-2520           
1 48281U 21036F   24001.55811001  .00002591  00000+0  19279-3 0  9990
2 48281  53.0546  59.5662 0001342 101.7551 258.3588 15.06400243148086
STARLINK-2558           
1 48282U 21036G   24001.44891421  .00000779  00000+0  71185-4 0  9994
2 48282  53.0542  65.0622 0001570  86.1090 274.0078 15.06396760148007
STARLINK-2516           
1 48283U 21036H   24001.44522974  .00001196  00000+0  99155-4 0  9990
2 48283  53.0529  65.0760 0001353 100.5258 259.5883 15.06398179148000
STARLINK-2564           
1 48284U 21036J   24001.57423658  .00007074  00000+0  49331-3 0  9995
2 48284  53.0538  64.5007 0001169  95.3304 264.7819 15.06399359148599
STARLINK-2548           
1 48285U 21036K   24002.16672493  .00003651  00000+0  26385-3 0  9996
2 48285  53.0533  61.8280 0001200  77.5801 282.5322 15.06406295148683
STARLINK-2547           
1 48286U 21036L   24001.47743815  .00001348  00000+0  10937-3 0  9994
2 48286  53.0546  64.6899 0001297  89.1629 270.9508 15.06387993148004
STARLINK-2566           
1 48287U 21036M   24001.43048547  .00003248  00000+0  23684-3 0  9995
2 48287  53.0539  65.1460 0001339  86.4374 273.6768 15.06397250147993
STARLINK-2562           
1 48288U 21036N   24002.16399307  .00016440  00000+0  11199-2 0  9995
2 48288  53.0539  61.9318 0001343  98.7367 261.3774 15.06402343148681
